ENVISAT                 
1 27386U 02009A   23250.38989697  .00000178  00000+0  72099-4 0  9994
2 27386  98.2394 217.0502 0001224  83.7807  89.3746 14.38401348127779
IDEFIX & ARIANE 42P R/B 
1 27422U 02021B   23250.06126135  .00000388  00000+0  16768-3 0  9997
2 27422  98.4938 188.9820 0012390   6.7743 353.3605 14.29767425111362
AQUA                    
1 27424U 02022A   23250.43081416  .00001160  00000+0  26100-3 0  9993
2 27424  98.2915 194.5888 0000826  62.2275  85.4355 14.58292142135342
CZ-4B R/B               
1 27432U 02024C   23250.55757005  .00000045  00000+0  46701-4 0  9992
2 27432  99.0175 285.9250 0051390  93.6129  69.1444 14.14234338100091
MIDORI II (ADEOS-II)    
1 27597U 02056A   23250.08807135  .00000396  00000+0  17726-3 0  9990
2 27597  98.6527 193.5940 0001776 110.3942 249.7429 14.27988643 79680
H-2A R/B                
1 27601U 02056E   23249.96013615  .00000502  00000+0  19472-3 0  9992
2 27601  98.1991 236.7306 0071975  10.3460   6.7470 14.32446083 83072
CZ-4B R/B               
1 28059U 03049C   23250.09124287  .00000500  00000+0  13014-3 0  9991
2 28059  98.5665 200.2705 0050247 142.1458 218.3288 14.53276310 53657
CZ-2C R/B               
1 28222U 04012C   23249.93732563  .00009903  00000+0  46876-3 0  9995
2 28222  97.8068 247.0117 0037818 319.8769  39.9672 15.18927300 63874
SL-16 R/B               
1 28353U 04021B   23249.71423730 -.00000261  00000+0 -11178-3 0  9996
2 28353  71.0036 352.2511 0006234 325.4250  34.6466 14.14343144993442
CZ-4B R/B               
1 28415U 04035C   23250.53077177  .00004214  00000+0  24522-3 0  9999
2 28415  97.4632 285.7304 0044670 284.9067  74.7219 15.11746740 41055
CZ-2C R/B               
1 28480U 04046B   23249.88987478  .00000434  00000+0  17901-3 0  9996
2 28480  98.1194 208.8456 0140887 340.8776  18.7148 14.26094015978063
ARIANE 5 R/B            
1 28499U 04049H   23250.12132333  .00001297  00000+0  16124-3 0  9994
2 28499  98.1460  17.4486 0090917  71.6407 106.6172 14.81508411 10224
CZ-2D R/B               
1 28738U 05024B   23249.62432521  .00007514  00000+0  35738-3 0  9999
2 28738  97.3581 248.9767 0012202  70.6427 289.6126 15.19397301999357
SUZAKU (ASTRO-EII)      
1 28773U 05025A   23249.41286384  .00015017  00000+0  48597-3 0  9994
2 28773  31.3910 248.5088 0004336 231.3989 128.6274 15.30821808  3146
ALOS (DAICHI)           
1 28931U 06002A   23250.31519321  .00001495  00000+0  29123-3 0  9996
2 28931  97.9951 205.4247 0001518  50.5031 309.6306 14.64424425939787
H-2A R/B                
1 28932U 06002B   23250.35588288  .00005908  00000+0  48352-3 0  9997
2 28932  98.2355 321.6322 0082236  62.2643 298.6887 14.97094384956918
RESURS-DK 1             
1 29228U 06021A   23249.79192292  .00002662  00000+0  19286-3 0  9997
2 29228  69.9349  69.9806 0001555 108.6180 251.5151 15.05249393949499
GENESIS 1               
1 29252U 06029A   23249.57562395  .00010421  00000+0  38123-3 0  9996
2 29252  64.5208  38.7741 0014980 209.9850 150.0422 15.28398564946950
CZ-4B R/B               
1 29507U 06046C   23249.86220538  .00003138  00000+0  22323-3 0  9992
2 29507  97.6812 282.6253 0043478 162.2389 198.0369 15.04632292921971
CZ-2C R/B               
1 31114U 07010B   23249.87931474  .00000202  00000+0  11250-3 0  9996
2 31114  98.2917  38.2601 0060685  76.7909 284.0029 14.19613269849896
COSMO-SKYMED 1          
1 31598U 07023A   23250.45678299  .00000716  00000+0  96429-4 0  9997
2 31598  97.8886  72.7441 0001465  90.4019 269.7362 14.82158896879177
GENESIS 2               
1 31789U 07028A   23249.54248062  .00008312  00000+0  30724-3 0  9998
2 31789  64.4939  83.3533 0053710 250.0333 109.5005 15.27009282893884
COSMOS 2428             
1 31792U 07029A   23250.32438626  .00000142  00000+0  10270-3 0  9995
2 31792  70.9314 322.3788 0005985  93.6259 266.5547 14.12555969835033
SL-16 R/B               
1 31793U 07029B   23249.91718277  .00000342  00000+0  20286-3 0  9992
2 31793  70.9747 294.8863 0002503 273.4106 261.2413 14.14549227835994
KORONAS-FOTON           
1 33504U 09003A   23250.23841394  .00003912  00000+0  17210-3 0  9991
2 33504  82.4391 129.0122 0017573 151.4247 208.7956 15.21438854805919
CZ-2C R/B               
1 37731U 11030B   23249.71547028  .00001532  00000+0  22182-3 0  9998
2 37731  97.7224 219.9536 0059332  82.8478 325.8067 14.76295692654869
H-2A R/B                
1 38341U 12025E   23249.93595208  .00002370  00000+0  26819-3 0  9990
2 38341  98.4425 138.8129 0054059  49.0936 311.4941 14.86469988611935
CUSAT 2 & FALCON 9 R/B  
1 39271U 13055G   23249.54277018  .00050525 -35027-6  83992-3 0  9995
2 39271  80.9465  54.4589 0417667 159.5921 202.2563 14.91399939522549
SHIJIAN-16 (SJ-16)      
1 39358U 13057A   23250.40146682  .00000993  00000+0  11246-3 0  9994
2 39358  74.9720 109.6011 0018739 165.9578 194.2133 14.87427342535408
CZ-2C R/B               
1 39364U 13059B   23249.88580820  .00030805  00000+0  59889-3 0  9999
2 39364  97.0961 295.1037 0031421 155.5354 204.7396 15.46999230548809
SL-4 R/B                
1 39679U 14021B   23249.87075899  .00008607  00000+0  36545-3 0  9991
2 39679  51.6130  29.5657 0150538  76.3579 285.4107 15.14205777516935
ALOS-2                  
1 39766U 14029A   23250.39038153  .00002424  00000+0  33134-3 0  9999
2 39766  97.9221 346.1068 0001541  99.3602 260.7783 14.79477499501719
SL-27 R/B               
1 40354U 14084B   23250.16521410  .00016439  00000+0  23909-3 0  9993
2 40354  74.7316  99.1167 0024225  56.0762 304.2756 15.55360484490146
YAOGAN-29               
1 41038U 15069A   23250.44240685  .00000633  00000+0  87701-4 0  9990
2 41038  98.0646 258.1460 0002525  92.5783 267.5719 14.81460234420450
ASTRO-H (HITOMI)        
1 41337U 16012A   23249.88614520  .00002613  00000+0  19047-3 0  9997
2 41337  31.0033 101.9207 0011190 190.4115 169.6290 15.01536967414222
HXMT (HUIYAN)           
1 42758U 17034A   23250.45312463  .00007265  00000+0  41797-3 0  9991
2 42758  43.0162  45.2089 0004552 190.4576 169.6176 15.12865689343827
CZ-2C R/B               
1 43521U 18054D   23250.02645811  .00013356  00000+0  57099-3 0  9992
2 43521  35.1499 102.8791 0067018  92.7002 268.1388 15.19990235287498
SAOCOM 1A               
1 43641U 18076A   23250.46518083  .00000625  00000+0  85049-4 0  9999
2 43641  97.8904  75.7672 0001360  87.9003 272.2366 14.82151684265942
H-2A R/B                
1 43682U 18084L   23249.85400486  .00006298  00000+0  38718-3 0  9993
2 43682  98.8898 286.8803 0049004 232.9946 126.6790 15.09510882266534
SAOCOM 1B               
1 46265U 20059A   23250.36134568  .00000644  00000+0  87427-4 0  9992
2 46265  97.8913  74.7487 0001472  88.0507 272.0875 14.82166867163326
CSS (TIANHE)            
1 48274U 21035A   23250.41140741  .00030442  00000+0  34184-3 0  9995
2 48274  41.4752  15.8612 0010490 318.7503  41.2543 15.61898836134680
2022-019U               
1 51842U 22019U   23250.50378291  .00026674  00000+0  68125-3 0  9990
2 51842  97.5256 339.1467 0050654  49.4645 311.0994 15.38110053 85109
CZ-2C R/B               
1 52794U 22058K   23250.26192578  .00008551  00000+0  40629-3 0  9998
2 52794  50.1705 187.2209 0093037  71.4987 289.6051 15.16222488 69942
CZ-2C R/B               
1 53131U 22082D   23249.86089032  .00035461  00000+0  53545-3 0  9996
2 53131  97.3454 266.7175 0028751 298.6940  61.1425 15.54171633 64445
